[{"OBJECT_NAME":"OBJECT L","OBJECT_ID":"2023-085L","EPOCH":"2026-03-09T23:02:21.999840","MEAN_MOTION":15.29079976,"ECCENTRICITY":0.0005428,"INCLINATION":97.486,"RA_OF_ASC_NODE":178.8598,"ARG_OF_PERICENTER":50.8528,"MEAN_ANOMALY":309.3193,"EPHEMERIS_TYPE":0,"CLASSIFICATION_TYPE":"U","NORAD_CAT_ID":57014,"ELEMENT_SET_NO":999,"REV_AT_EPOCH":15144,"BSTAR":0.00063462603,"MEAN_MOTION_DOT":0.00017871,"MEAN_MOTION_DDOT":0},{"OBJECT_NAME":"STARLINK-34077","OBJECT_ID":"2025-101R","EPOCH":"2026-03-09T03:18:42.312672","MEAN_MOTION":15.27604249,"ECCENTRICITY":0.00012169,"INCLINATION":43.0039,"RA_OF_ASC_NODE":0.8363,"ARG_OF_PERICENTER":287.6209,"MEAN_ANOMALY":72.4509,"EPHEMERIS_TYPE":0,"CLASSIFICATION_TYPE":"U","NORAD_CAT_ID":64009,"ELEMENT_SET_NO":999,"REV_AT_EPOCH":4697,"BSTAR":0.0012077547,"MEAN_MOTION_DOT":0.00033147,"MEAN_MOTION_DDOT":0}]
